COSMOS 2522 [GLONASS-M] 
1 42939U 17055A   26191.11660740  .00000122  00000+0  00000+0 0  9992
2 42939  64.0805 191.1038 0010910 240.8947 119.0275  2.13101919 68466
COSMOS 2527 [GLONASS-M] 
1 43508U 18053A   26190.14000907 -.00000024  00000+0  00000+0 0  9991
2 43508  65.5893  73.1758 0006665 231.8684 128.1313  2.13102220 62745
COSMOS 2529 [GLONASS-M] 
1 43687U 18086A   26191.17482311  .00000122  00000+0  00000+0 0  9990
2 43687  64.2967 191.8180 0012112 256.3203 103.5775  2.13102033 59771
COSMOS 2534 [GLONASS-M] 
1 44299U 19030A   26191.12715837  .00000122  00000+0  00000+0 0  9997
2 44299  64.3705 191.8439 0013509 274.9524 182.9689  2.13102136 55418
COSMOS 2544 [GLONASS-M] 
1 44850U 19088A   26191.02313839 -.00000024  00000+0  00000+0 0  9990
2 44850  65.5773  72.9693 0012337 255.3467 104.5773  2.13103012 51208
COSMOS 2545 [GLONASS-M] 
1 45358U 20018A   26188.87178822 -.00000052  00000+0  00000+0 0  9990
2 45358  64.3418 311.6924 0009213 230.0449 129.8870  2.13102711 49103
COSMOS 2547 [GLONASS-K] 
1 46805U 20075A   26189.53074253  .00000126  00000+0  00000+0 0  9999
2 46805  64.6013 191.7631 0009456 239.7730 120.1659  2.13100166 44369
COSMOS 2557 [GLONASS-K] 
1 52984U 22075A   26188.28712434 -.00000050  00000+0  00000+0 0  9994
2 52984  64.2857 313.7776 0010595 272.6042  87.2866  2.13102498 31145
COSMOS 2559 [GLONASS-K] 
1 54031U 22130A   26189.98384888 -.00000057  00000+0  00000+0 0  9994
2 54031  64.2570 313.8003 0012993 180.3657 179.6426  2.13101645 29156
COSMOS 2564 [GLONASS-M] 
1 54377U 22161A   26189.82701961  .00000127  00000+0  00000+0 0  9996
2 54377  64.7436 191.9933 0012253 225.0747 134.8592  2.13101979 28097
COSMOS 2569 [GLONASS-K2]
1 57517U 23114A   26189.37005777 -.00000024  00000+0  00000+0 0  9993
2 57517  65.3140  71.9064 0009905 296.3420  63.6175  2.13103725 22716
COSMOS 2584 [GLONASS-K2]
1 63130U 25042A   26185.50280755 -.00000010  00000+0  00000+0 0  9990
2 63130  65.0947  72.2135 0006059 222.1818 137.8396  2.13103855 10411
COSMOS 2596 [GLONASS-K1]
1 65590U 25206B   26190.50906699 -.00000059  00000+0  00000+0 0  9995
2 65590  64.6203 314.2090 0011163 308.0791  48.6851  2.13100694  6382
